{
  "type": "FeatureCollection",
  "features": [
    {
      "type": "Feature",
      "properties": {
        "stroke": "#e34798",
        "stroke-width": 2,
        "stroke-opacity": 1,
        "fill": "#e34798",
        "fill-opacity": 0.5,
        "เลขโฉนดที่ดิน": "12345",
        "หน้าสำรวจ": "6789",
        "เลขที่ดิน": "10",
        "ระวาง": "4847 I 1234-5678",
        "ตำบล": "ปากทรง",
        "อำเภอ": "พะโต๊ะ",
        "จังหวัด": "ชุมพร",
        "เนื้อที่": "50 ไร่",
        "ประเภทป่า": "ป่าเบญพรรณ",
        "ปริมาณน้ำฝน": "2500 mm/ปี",
        "trees": [
          {
            "ชื่อวิทยาศาสตร์": "Dipterocarpus tuberculatus",
            "ชื่อวงศ์": "Dipterocarpaceae",
            "ชื่อสามัญ": "ยางนา",
            "ชื่ออื่น": "ยางใหญ่",
            "เส้นผ่านศูนย์กลาง": "35 cm",
            "ความสูง": "20 m",
            "จำนวนต้น": 15
          },
          {
            "ชื่อวิทยาศาสตร์": "Shorea obtusa",
            "ชื่อวงศ์": "Dipterocarpaceae",
            "ชื่อสามัญ": "เต็ง",
            "ชื่ออื่น": "กะเต็ง",
            "เส้นผ่านศูนย์กลาง": "30 cm",
            "ความสูง": "18 m",
            "จำนวนต้น": 20
          },
          {
            "ชื่อวิทยาศาสตร์": "Xylia xylocarpa",
            "ชื่อวงศ์": "Fabaceae",
            "ชื่อสามัญ": "ประดู่แดง",
            "ชื่ออื่น": "ประดู่ชิงชัน",
            "เส้นผ่านศูนย์กลาง": "25 cm",
            "ความสูง": "15 m",
            "จำนวนต้น": 10
          }
        ]
      },
      "geometry": {
        "type": "Polygon",
        "coordinates": [
          [
            [
              98.80067304585805,
              9.731787084184603
            ],
            [
              98.94134971236969,
              9.73846475403731
            ],
            [
              98.8829650662745,
              9.829938576916746
            ],
            [
              98.79540991175219,
              9.827397928917222
            ],
            [
              98.80067304585805,
              9.731787084184603
            ]
          ]
        ]
      },
      "id":"mock-1"
    },
    {
      "type": "Feature",
      "properties": {
        "stroke": "#e34798",
        "stroke-width": 2,
        "stroke-opacity": 1,
        "fill": "#e34798",
        "fill-opacity": 0.5,
        "เลขโฉนดที่ดิน": "56789",
        "หน้าสำรวจ": "2345",
        "เลขที่ดิน": "25",
        "ระวาง": "4847 I 5678-9101",
        "ตำบล": "บ้านหลวง",
        "อำเภอ": "จอมทอง",
        "จังหวัด": "เชียงใหม่",
        "เนื้อที่": "80 ไร่",
        "ประเภทป่า": "ป่าดิบแล้ง",
        "ปริมาณน้ำฝน": "3200 mm/ปี",
        "trees": [
          {
            "ชื่อวิทยาศาสตร์": "Quercus kerrii",
            "ชื่อวงศ์": "Fagaceae",
            "ชื่อสามัญ": "ก่อเดือยไก่",
            "ชื่ออื่น": "ก่อชนิดหนึ่ง",
            "เส้นผ่านศูนย์กลาง": "3 cm",
            "ความสูง": "2 m",
            "จำนวนต้น": 50
          },
          {
            "ชื่อวิทยาศาสตร์": "Castanopsis acuminatissima",
            "ชื่อวงศ์": "Fagaceae",
            "ชื่อสามัญ": "หมากขาง",
            "ชื่ออื่น": "ขาง",
            "เส้นผ่านศูนย์กลาง": "4.5 cm",
            "ความสูง": "3 m",
            "จำนวนต้น": 40
          },
          {
            "ชื่อวิทยาศาสตร์": "Lithocarpus dealbatus",
            "ชื่อวงศ์": "Fagaceae",
            "ชื่อสามัญ": "ก่อตาแป",
            "ชื่ออื่น": "ตาแป",
            "เส้นผ่านศูนย์กลาง": "30 cm",
            "ความสูง": "15 m",
            "จำนวนต้น": 25
          },
          {
            "ชื่อวิทยาศาสตร์": "Schima wallichii",
            "ชื่อวงศ์": "Theaceae",
            "ชื่อสามัญ": "ปีบหลวง",
            "ชื่ออื่น": "ปีบเขา",
            "เส้นผ่านศูนย์กลาง": "40 cm",
            "ความสูง": "20 m",
            "จำนวนต้น": 10
          }
        ]
      },
      "geometry": {
        "type": "Polygon",
        "coordinates": [
          [
            [
              98.40296288907501,
              18.59639595001039
            ],
            [
              98.21079255769041,
              18.500564038112103
            ],
            [
              98.36066031355699,
              18.276517951155242
            ],
            [
              98.63858440751176,
              18.31743877621109
            ],
            [
              98.66708955412645,
              18.4621098230334
            ],
            [
              98.79677131887615,
              18.501722145499713
            ],
            [
              98.81196414250479,
              18.61371779310862
            ],
            [
              98.6825127792793,
              18.690077491950404
            ],
            [
              98.51697705672012,
              18.664853916675966
            ],
            [
              98.40296288907501,
              18.59639595001039
            ]
          ]
        ]
      },"id":"mock-2"
    },
    {
      "type": "Feature",
      "properties": {
        "stroke": "#e34798",
        "stroke-width": 2,
        "stroke-opacity": 1,
        "fill": "#e34798",
        "fill-opacity": 0.5,
        "เลขโฉนดที่ดิน": "98765",
        "หน้าสำรวจ": "5432",
        "เลขที่ดิน": "45",
        "ระวาง": "5234 I 5678-9101",
        "ตำบล": "หมูสี",
        "อำเภอ": "ปากช่อง",
        "จังหวัด": "นครราชสีมา",
        "เนื้อที่": "120 ไร่",
        "ประเภทป่า": "ป่าเต็งรัง",
        "ปริมาณน้ำฝน": "1400 mm/ปี",
        "trees": [
          {
            "ชื่อวิทยาศาสตร์": "Dipterocarpus alatus",
            "ชื่อวงศ์": "Dipterocarpaceae",
            "ชื่อสามัญ": "ยางนา",
            "ชื่ออื่น": "ยางใหญ่",
            "เส้นผ่านศูนย์กลาง": "40 cm",
            "ความสูง": "25 m",
            "จำนวนต้น": 12
          },
          {
            "ชื่อวิทยาศาสตร์": "Shorea roxburghii",
            "ชื่อวงศ์": "Dipterocarpaceae",
            "ชื่อสามัญ": "แดง",
            "ชื่ออื่น": "เค็ง",
            "เส้นผ่านศูนย์กลาง": "3.5 cm",
            "ความสูง": "2.5 m",
            "จำนวนต้น": 30
          },
          {
            "ชื่อวิทยาศาสตร์": "Pterocarpus macrocarpus",
            "ชื่อวงศ์": "Fabaceae",
            "ชื่อสามัญ": "ประดู่ป่า",
            "ชื่ออื่น": "ประดู่แดง",
            "เส้นผ่านศูนย์กลาง": "28 cm",
            "ความสูง": "18 m",
            "จำนวนต้น": 8
          },
          {
            "ชื่อวิทยาศาสตร์": "Terminalia bellirica",
            "ชื่อวงศ์": "Combretaceae",
            "ชื่อสามัญ": "สมอพิเภก",
            "ชื่ออื่น": "สมอขาว",
            "เส้นผ่านศูนย์กลาง": "4 cm",
            "ความสูง": "3 m",
            "จำนวนต้น": 20
          }
        ]
      },
      "geometry": {
        "type": "Polygon",
        "coordinates": [
          [
            [
              101.35823232620788,
              14.331953372948718
            ],
            [
              101.3851459346564,
              14.309248097141477
            ],
            [
              101.41817737348185,
              14.32136962910998
            ],
            [
              101.40809443074136,
              14.372451725324282
            ],
            [
              101.36050460469897,
              14.392443043110745
            ],
            [
              101.34268675010014,
              14.347785925450594
            ],
            [
              101.35823232620788,
              14.331953372948718
            ]
          ]
        ]
      },"id":"mock-3"
    },{
    "type": "Feature",
    "properties": {
        "เลขโฉนดที่ดิน": "11223",
        "หน้าสำรวจ": "3344",
        "เลขที่ดิน": "55",
        "ระวาง": "5234 I 1122-3344",
        "ตำบล": "ทุ่งลุยลาย",
        "อำเภอ": "คอนสาร",
        "จังหวัด": "ชัยภูมิ",
        "เนื้อที่": "150 ไร่",
        "ประเภทป่า": "ป่าเต็งรัง",
        "ปริมาณน้ำฝน": "1600 mm/ปี",
        "trees": [
        {
            "ชื่อวิทยาศาสตร์": "Shorea obtusa",
            "ชื่อวงศ์": "Dipterocarpaceae",
            "ชื่อสามัญ": "เต็ง",
            "ชื่ออื่น": "กะเต็ง",
            "เส้นผ่านศูนย์กลาง": "20 cm",
            "ความสูง": "10 m",
            "จำนวนต้น": 60
        },
        {
            "ชื่อวิทยาศาสตร์": "Dipterocarpus tuberculatus",
            "ชื่อวงศ์": "Dipterocarpaceae",
            "ชื่อสามัญ": "ยางนา",
            "ชื่ออื่น": "ยางใหญ่",
            "เส้นผ่านศูนย์กลาง": "35 cm",
            "ความสูง": "22 m",
            "จำนวนต้น": 25
        },
        {
            "ชื่อวิทยาศาสตร์": "Terminalia bellirica",
            "ชื่อวงศ์": "Combretaceae",
            "ชื่อสามัญ": "สมอพิเภก",
            "ชื่ออื่น": "สมอขาว",
            "เส้นผ่านศูนย์กลาง": "4 cm",
            "ความสูง": "3 m",
            "จำนวนต้น": 40
        },
        {
            "ชื่อวิทยาศาสตร์": "Pterocarpus macrocarpus",
            "ชื่อวงศ์": "Fabaceae",
            "ชื่อสามัญ": "ประดู่ป่า",
            "ชื่ออื่น": "ประดู่แดง",
            "เส้นผ่านศูนย์กลาง": "28 cm",
            "ความสูง": "17 m",
            "จำนวนต้น": 15
        }
        ],
        "stroke": "#e34798",
        "stroke-width": 2,
        "stroke-opacity": 1,
        "fill": "#e34798",
        "fill-opacity": 0.5
    },
    "geometry": {
        "type": "Polygon",
        "coordinates": [
        [
            [
            101.54976688047788,
            16.255452039843718
            ],
            [
            101.60053262579703,
            16.239332524768358
            ],
            [
            101.66307822243812,
            16.19720214648568
            ],
            [
            101.7173467609993,
            16.211210400747632
            ],
            [
            101.75702431226642,
            16.16103057108188
            ],
            [
            101.81645834600585,
            16.157196940246976
            ],
            [
            101.86470861598042,
            16.207072629543305
            ],
            [
            101.85737710850839,
            16.287360030190897
            ],
            [
            101.78504468618422,
            16.344366662799715
            ],
            [
            101.69654544812437,
            16.43739342501506
            ],
            [
            101.55098952468592,
            16.41920759104218
            ],
            [
            101.48572009126684,
            16.274373543901675
            ],
            [
            101.5244259563679,
            16.24635503214583
            ],
            [
            101.54976688047788,
            16.255452039843718
            ]
        ]
        ]
    },
    "id": "mock-4"
    }

  ]
}
